[{"OBJECT_NAME":"OBJECT W","OBJECT_ID":"2023-081W","EPOCH":"2026-03-09T22:48:59.769792","MEAN_MOTION":15.23580425,"ECCENTRICITY":0.00107253,"INCLINATION":97.3003,"RA_OF_ASC_NODE":135.1211,"ARG_OF_PERICENTER":10.0781,"MEAN_ANOMALY":350.0669,"EPHEMERIS_TYPE":0,"CLASSIFICATION_TYPE":"U","NORAD_CAT_ID":56866,"ELEMENT_SET_NO":999,"REV_AT_EPOCH":15291,"BSTAR":0.0003543564,"MEAN_MOTION_DOT":8.423e-5,"MEAN_MOTION_DDOT":0},{"OBJECT_NAME":"SL-8 R\/B","OBJECT_ID":"1981-003B","EPOCH":"2026-03-09T16:04:15.381408","MEAN_MOTION":15.1097362,"ECCENTRICITY":0.02621852,"INCLINATION":82.9386,"RA_OF_ASC_NODE":290.0424,"ARG_OF_PERICENTER":178.7086,"MEAN_ANOMALY":181.4887,"EPHEMERIS_TYPE":0,"CLASSIFICATION_TYPE":"U","NORAD_CAT_ID":12139,"ELEMENT_SET_NO":999,"REV_AT_EPOCH":31467,"BSTAR":0.00054115758,"MEAN_MOTION_DOT":0.00021105,"MEAN_MOTION_DDOT":0}]
